GPS BIIR-2  (PRN 13)    
1 24876U 97035A   26063.99847957  .00000013  00000+0  00000+0 0  9998
2 24876  55.9357 102.6478 0097960  56.2620 304.7451  2.00563970209864
GPS BIIR-5  (PRN 22)    
1 26407U 00040A   26063.83019018  .00000004  00000+0  00000+0 0  9992
2 26407  54.8755 219.3047 0122689 302.5325 230.1354  2.00568933187852
GPS BIIR-8  (PRN 16)    
1 27663U 03005A   26064.15638334  .00000007  00000+0  00000+0 0  9998
2 27663  54.9072 219.0997 0148735  52.7224 131.3819  2.00566245169226
GPS BIIR-11 (PRN 19)    
1 28190U 04009A   26063.42812631 -.00000020  00000+0  00000+0 0  9998
2 28190  54.9157 279.9188 0110961 169.0670   5.0968  2.00558098160848
GPS BIIR-13 (PRN 02)    
1 28474U 04045A   26064.14636715 -.00000094  00000+0  00000+0 0  9991
2 28474  55.1943 329.0893 0170840 312.8581  83.3458  2.00573460156343
GPS BIIRM-1 (PRN 17)    
1 28874U 05038A   26063.66238218 -.00000018  00000+0  00000+0 0  9996
2 28874  54.9628 277.3946 0128798 295.3469  71.7592  2.00572995149741
GPS BIIRM-2 (PRN 31)    
1 29486U 06042A   26064.31005873  .00000009  00000+0  00000+0 0  9993
2 29486  54.6981 155.4642 0106712  52.8923 318.8970  2.00575327142315
GPS BIIRM-3 (PRN 12)    
1 29601U 06052A   26063.71240001  .00000002  00000+0  00000+0 0  9993
2 29601  54.9572 218.1449 0087863  89.3643 271.5921  2.00551664141312
GPS BIIRM-4 (PRN 15)    
1 32260U 07047A   26064.01919554 -.00000008  00000+0  00000+0 0  9990
2 32260  54.0162  84.3580 0163608  85.9640 275.9610  2.00560713134728
GPS BIIRM-5 (PRN 29)    
1 32384U 07062A   26064.08231703 -.00000020  00000+0  00000+0 0  9998
2 32384  55.1143 278.3362 0032945 160.6669  12.9552  2.00553591133426
GPS BIIRM-6 (PRN 07)    
1 32711U 08012A   26063.43887733  .00000006  00000+0  00000+0 0  9999
2 32711  54.4824 154.1108 0206979 246.1865 111.6633  2.00569187131653
GPS BIIRM-8 (PRN 05)    
1 35752U 09043A   26063.92888088 -.00000085  00000+0  00000+0 0  9998
2 35752  56.1486  31.5470 0051713  80.7039 289.0108  2.00560419121276
GPS BIIF-1  (PRN 25)    
1 36585U 10022A   26063.82760836  .00000002  00000+0  00000+0 0  9999
2 36585  54.2888 212.7640 0127347  65.8806 347.4855  2.00557291115502
GPS BIIF-3  (PRN 24)    
1 38833U 12053A   26063.11837641  .00000006  00000+0  00000+0 0  9998
2 38833  53.5658 147.9052 0176935  64.7808 297.0848  2.00565801 97338
GPS BIIF-4  (PRN 27)    
1 39166U 13023A   26063.98037619 -.00000016  00000+0  00000+0 0  9990
2 39166  54.5857 273.2171 0141620  49.9246 311.3385  2.00564217 93791
GPS BIIF-5  (PRN 30)    
1 39533U 14008A   26062.98170139  .00000002  00000+0  00000+0 0  9990
2 39533  53.6377 153.6123 0082291 228.2820 131.0416  2.00553063 87570
GPS BIIF-6  (PRN 06)    
1 39741U 14026A   26063.75840403 -.00000098  00000+0  00000+0 0  9991
2 39741  56.5463 335.5859 0039864 324.5417  35.2288  2.00568672 86445
